OBJECT_NAME,OBJECT_ID,EPOCH,MEAN_MOTION,ECCENTRICITY,INCLINATION,RA_OF_ASC_NODE,ARG_OF_PERICENTER,MEAN_ANOMALY,EPHEMERIS_TYPE,CLASSIFICATION_TYPE,NORAD_CAT_ID,ELEMENT_SET_NO,REV_AT_EPOCH,BSTAR,MEAN_MOTION_DOT,MEAN_MOTION_DDOT
SWARM B,2013-067A,2026-06-25T12:19:26.900256,15.28598810,.00030845,87.7440,339.7868,81.8483,278.3116,0,U,39451,999,68451,.13867434E-3,.389E-4,0
SWARM A,2013-067B,2026-06-25T11:28:30.570240,15.51100981,.00031407,87.3324,53.1609,96.4865,263.6754,0,U,39452,999,70753,.2188943E-3,.1279E-3,0
SWARM C,2013-067C,2026-06-25T11:28:21.494784,15.51099812,.00031172,87.3324,51.7419,97.0477,263.1139,0,U,39453,999,70749,.21730058E-3,.12697E-3,0
BRITE-CA1 (TORONTO),2014-033L,2026-06-24T15:32:29.342976,14.72686478,.0077269,97.9747,304.4382,252.6981,106.5763,0,U,40020,999,64331,.11129558E-3,.689E-5,0
OCO 2,2014-035A,2026-06-25T11:08:51.351072,14.57117401,.0001517,98.2018,117.6314,83.9784,276.1587,0,U,40059,999,63725,.90646338E-4,.363E-5,0
BRITE-PL2 (HEWELIUSZ),2014-049B,2026-06-25T12:58:55.428384,14.94624267,.00154244,97.9105,288.6055,83.0154,277.2819,0,U,40119,999,64269,.1817953E-3,.1913E-4,0
MMS 1,2015-011A,2026-06-25T16:00:03.000096,0.28359264,.83200839,72.2704,348.7104,167.5766,83.6436,0,U,40482,999,137,0,-.727E-5,0
MMS 2,2015-011B,2026-06-25T16:00:03.000096,0.28359210,.83228814,72.2740,348.7095,167.5798,83.6347,0,U,40483,999,137,0,-.727E-5,0
MMS 3,2015-011C,2026-06-25T16:00:03.000096,0.28359221,.83212501,72.2738,348.7213,167.5872,83.6087,0,U,40484,999,137,0,-.727E-5,0
MMS 4,2015-011D,2026-06-25T16:00:03.000096,0.28359235,.83211571,72.2703,348.7045,167.5971,83.6014,0,U,40485,999,137,0,-.727E-5,0
ASTROSAT,2015-052A,2026-06-25T05:33:25.272000,14.82519717,.00077467,5.9976,97.4359,153.3235,206.7292,0,U,40930,999,58102,.10500804E-3,.1534E-4,0
DAMPE,2015-078A,2026-06-25T14:25:11.572896,15.30805262,.00135031,97.4561,182.1091,51.2625,308.9820,0,U,41173,999,58583,.50367975E-4,.1425E-4,0
PISAT,2016-059B,2026-06-25T12:31:58.668384,14.68996607,.0029079,97.8179,176.6169,175.8973,184.2477,0,U,41784,999,52096,.15795571E-3,.884E-5,0
HXMT (HUIYAN),2017-034A,2026-06-25T08:33:25.541568,15.18523714,.00318159,43.0127,137.5487,199.1754,160.7899,0,U,42758,999,49890,.21864075E-3,.4412E-4,0
FLYING LAPTOP,2017-042G,2026-06-25T14:01:19.879968,15.01195026,.00199452,97.4721,331.7960,94.9706,265.3796,0,U,42831,999,48771,.24974874E-3,.316E-4,0
ZHANGHENG 1-01 (CSES-1),2018-015C,2026-06-25T15:02:05.076096,15.20911216,.00173285,97.6871,342.4523,234.8703,125.0909,0,U,43194,999,46592,.37507187E-3,.8257E-4,0
SALSAT,2020-068K,2026-06-25T12:25:27.555456,15.29908924,.00078024,97.8852,180.0899,272.5783,87.4563,0,U,46495,999,31663,.3089847E-3,.8873E-4,0
IXPE,2021-121A,2026-06-25T14:00:01.999872,15.10320105,.00073446,0.2293,254.1675,203.0706,168.2525,0,U,49954,999,578,.57442165E-3,.10637E-3,0
SMILE,2026-109A,2026-06-07T09:11:54.544416,7.54049028,.3310191,69.9787,209.3069,288.5544,45.7342,0,U,69123,999,248,-.36778157E-3,-.41E-6,0
