SWARM B                 
1 39451U 13067A   26176.51350579  .00003890  00000+0  13867-3 0  9993
2 39451  87.7440 339.7868 0003084  81.8483 278.3116 15.28598810684514
SWARM A                 
1 39452U 13067B   26176.47813160  .00012790  00000+0  21889-3 0  9991
2 39452  87.3324  53.1609 0003140  96.4865 263.6754 15.51100981707538
SWARM C                 
1 39453U 13067C   26176.47802656  .00012697  00000+0  21730-3 0  9991
2 39453  87.3324  51.7419 0003117  97.0477 263.1139 15.51099812707499
BRITE-CA1 (TORONTO)     
1 40020U 14033L   26175.64756184  .00000689  00000+0  11130-3 0  9990
2 40020  97.9747 304.4382 0077269 252.6981 106.5763 14.72686478643317
OCO 2                   
1 40059U 14035A   26176.46448323  .00000363  00000+0  90646-4 0  9997
2 40059  98.2018 117.6314 0001517  83.9784 276.1587 14.57117401637254
BRITE-PL2 (HEWELIUSZ)   
1 40119U 14049B   26176.54091931  .00001913  00000+0  18180-3 0  9991
2 40119  97.9105 288.6055 0015424  83.0154 277.2819 14.94624267642697
MMS 1                   
1 40482U 15011A   26176.66670139 -.00000727  00000+0  00000+0 0  9991
2 40482  72.2704 348.7104 8320083 167.5766  83.6436  0.28359264  1371
MMS 2                   
1 40483U 15011B   26176.66670139 -.00000727  00000+0  00000+0 0  9992
2 40483  72.2740 348.7095 8322881 167.5798  83.6347  0.28359210  1376
MMS 3                   
1 40484U 15011C   26176.66670139 -.00000727  00000+0  00000+0 0  9993
2 40484  72.2738 348.7213 8321250 167.5872  83.6087  0.28359221  1371
MMS 4                   
1 40485U 15011D   26176.66670139 -.00000727  00000+0  00000+0 0  9994
2 40485  72.2703 348.7045 8321157 167.5971  83.6014  0.28359235  1378
ASTROSAT                
1 40930U 15052A   26176.23154250  .00001534  00000+0  10501-3 0  9995
2 40930   5.9976  97.4359 0007746 153.3235 206.7292 14.82519717581026
DAMPE                   
1 41173U 15078A   26176.60082839  .00001425  00000+0  50368-4 0  9992
2 41173  97.4561 182.1091 0013503  51.2625 308.9820 15.30805262585836
PISAT                   
1 41784U 16059B   26176.52220681  .00000884  00000+0  15796-3 0  9993
2 41784  97.8179 176.6169 0029079 175.8973 184.2477 14.68996607520961
HXMT (HUIYAN)           
1 42758U 17034A   26176.35654562  .00004412  00000+0  21864-3 0  9993
2 42758  43.0127 137.5487 0031815 199.1754 160.7899 15.18523714498901
FLYING LAPTOP           
1 42831U 17042G   26176.58425787  .00003160  00000+0  24975-3 0  9999
2 42831  97.4721 331.7960 0019945  94.9706 265.3796 15.01195026487717
ZHANGHENG 1-01 (CSES-1) 
1 43194U 18015C   26176.62644764  .00008257  00000+0  37507-3 0  9993
2 43194  97.6871 342.4523 0017328 234.8703 125.0909 15.20911216465922
SALSAT                  
1 46495U 20068K   26176.51768004  .00008873  00000+0  30898-3 0  9993
2 46495  97.8852 180.0899 0007802 272.5783  87.4563 15.29908924316636
IXPE                    
1 49954U 21121A   26176.58335648  .00010637  00000+0  57442-3 0  9993
2 49954   0.2293 254.1675 0007344 203.0706 168.2525 15.10320105  5782
SMILE                   
1 69123U 26109A   26158.38327019 -.00000041  00000+0 -36778-3 0  9994
2 69123  69.9787 209.3069 3310191 288.5544  45.7342  7.54049028  2480
